[Satellite]
VERSION=1.1
NAME=IRIDIUM 77 [+]
NICKNAME=IRIDIUM 77 [+]
TLE1=1 25471U 98051E   17186.07931736 -.00000086  00000-0 -34600-4 0  9994
TLE2=2 25471  86.4211  14.1624 0002066  74.0548  40.6873 14.38611254990363
